SAR-LUPE 2              
1 31797U 07030A   26177.25133183  .00032032  00000+0  54110-3 0  9999
2 31797  98.1043 282.8164 0002423 181.6385 178.4858 15.51566932 58342
SAPPHIRE                
1 39088U 13009C   26177.22479678  .00000110  00000+0  53478-4 0  9991
2 39088  98.4264 356.4660 0010427 217.1539 142.8926 14.35242895697877
PRAETORIAN SDA_602      
1 65565U 25203A   26176.91435568  .00000104  00000+0  82306-4 0  9999
2 65565  81.3029   2.6841 0006264 162.2891 197.8485 13.84278827 39903
PRAETORIAN SDA_603      
1 65566U 25203B   26177.23260437  .00000179  00000+0  15026-3 0  9993
2 65566  81.3036   2.3113 0009831 162.9411 197.2078 13.83906179 39953
PRAETORIAN SDA_604      
1 65567U 25203C   26177.25792323  .00000085  00000+0  67017-4 0  9994
2 65567  81.3052   2.7142 0005772 166.7635 193.3674 13.83048405 39934
PRAETORIAN SDA_605      
1 65568U 25203D   26177.22072512  .00000057  00000+0  40607-4 0  9998
2 65568  81.3018   2.4029 0008583 158.9726 201.1785 13.83434886 39949
PRAETORIAN SDA_606      
1 65569U 25203E   26177.27717373  .00000053  00000+0  37698-4 0  9997
2 65569  81.3052   2.5792 0006456 161.3968 198.7426 13.83198590 39941
PRAETORIAN SDA_607      
1 65570U 25203F   26177.20577193  .00000226  00000+0  19210-3 0  9997
2 65570  81.3037   2.2913 0009190 163.0881 197.0583 13.84285777 39951
PRAETORIAN SDA_608      
1 65571U 25203G   26177.25851723  .00000043  00000+0  27653-4 0  9995
2 65571  81.3005   2.4081 0006277 166.0666 194.0665 13.83817283 39941
PRAETORIAN SDA_609      
1 65572U 25203H   26177.26085524  .00000169  00000+0  14066-3 0  9997
2 65572  81.3047   2.3872 0007234 160.9817 199.1612 13.84209923 39956
PRAETORIAN SDA_610      
1 65573U 25203J   26176.94934940  .00000081  00000+0  62142-4 0  9999
2 65573  81.3007   2.6531 0007032 166.5444 193.5901 13.83768337 39904
PRAETORIAN SDA_611      
1 65574U 25203K   26177.24237226  .00000147  00000+0  12278-3 0  9994
2 65574  81.3008   2.5536 0005858 170.1444 189.9828 13.83310567 39933
PRAETORIAN SDA_612      
1 65575U 25203L   26177.22068667  .00000182  00000+0  15075-3 0  9991
2 65575  81.3029   2.1381 0009593 162.6169 197.5318 13.85040860 39961
PRAETORIAN SDA_613      
1 65576U 25203M   26177.25267798  .00000071  00000+0  54499-4 0  9992
2 65576  81.2999   2.5484 0006059 159.6972 200.4426 13.82765868 39937
PRAETORIAN SDA_614      
1 65577U 25203N   26177.21156834  .00000064  00000+0  46390-4 0  9990
2 65577  81.3013   2.2266 0007519 159.5240 200.6220 13.84777967 39962
PRAETORIAN SDA_615      
1 65578U 25203P   26177.26294968  .00000229  00000+0  19352-3 0  9997
2 65578  81.3020   2.1482 0009473 160.9741 199.1772 13.84437220 39962
PRAETORIAN SDA_616      
1 65579U 25203Q   26177.24185712  .00000184  00000+0  15650-3 0  9999
2 65579  81.3060   2.7054 0005749 168.1211 192.0082 13.83269100 39934
PRAETORIAN SDA_617      
1 65580U 25203R   26177.26423364  .00000049  00000+0  33607-4 0  9994
2 65580  81.3035   2.5153 0007787 159.8201 200.3265 13.83150435 39943
PRAETORIAN SDA_618      
1 65581U 25203S   26177.22747220  .00000148  00000+0  12094-3 0  9997
2 65581  81.3020   2.1079 0010108 163.5188 196.6299 13.84671170 39969
PRAETORIAN SDA_619      
1 65582U 25203T   26177.26905880  .00000206  00000+0  17540-3 0  9996
2 65582  81.3046   2.3804 0008589 160.9660 199.1819 13.83806225 40588
PRAETORIAN SDA_620      
1 65583U 25203U   26177.22596351  .00000187  00000+0  15847-3 0  9998
2 65583  81.3029   2.4426 0008021 157.3474 202.8038 13.83619580 39944
PRAETORIAN SDA_621      
1 65584U 25203V   26177.27085933  .00000081  00000+0  62071-4 0  9998
2 65584  81.3021   2.3155 0007848 154.7015 205.4528 13.83802121 39952
PRAETORIAN SDA_601      
1 65585U 25203W   26177.24564784  .00000180  00000+0  15371-3 0  9992
2 65585  81.3038   2.6460 0005752 170.3387 189.7880 13.83167857 39934
VICTUS HAZE PUMA        
1 69646U 26142A   26177.29586762  .00004277  00000+0  19659-3 0  9996
2 69646  97.4481  74.8163 0021103 295.0090  64.8954 15.20715168  1055
